H1 CPF 01  gfz 2021 06 17 00  6681 tandemx   
H2 1003001  6202 36605    2021 06 17 00 59 42 2021 06 22 00 00 42   120 1 1  0 0 0
H9
10 0 59385  75582.000000  0    4605291.084  -3933442.809  -3292092.819
10 0 59385  75702.000000  0    4766472.662  -4321504.279  -2472524.260
10 0 59385  75822.000000  0    4838397.402  -4636256.878  -1609540.422
10 0 59385  75942.000000  0    4821080.467  -4870577.408   -718269.891
10 0 59385  76062.000000  0    4716218.677  -5018765.733    185632.087
10 0 59385  76182.000000  0    4527139.983  -5076680.454   1086265.090
10 0 59385  76302.000000  0    4258720.279  -5041844.221   1967772.178
10 0 59385  76422.000000  0    3917267.325  -4913514.862   2814627.938
10 0 59385  76542.000000  0    3510377.463  -4692722.295   3611919.528
10 0 59385  76662.000000  0    3046767.151  -4382268.732   4345615.840
10 0 59385  76782.000000  0    2536084.508  -3986692.581   5002817.857
10 0 59385  76902.000000  0    1988705.888  -3512197.825   5571985.843
10 0 59385  77022.000000  0    1415521.941  -2966550.937   6043140.265
10 0 59385  77142.000000  0     827717.956  -2358947.004   6408031.798
10 0 59385  77262.000000  0     236553.887  -1699850.117   6660279.387
10 0 59385  77382.000000  0    -346851.579  -1000810.263   6795475.473
10 0 59385  77502.000000  0    -911729.066   -274258.935   6811258.898
10 0 59385  77622.000000  0   -1447856.406    466712.413   6707353.301
10 0 59385  77742.000000  0   -1945743.118   1208587.818   6485571.503
10 0 59385  77862.000000  0   -2396798.396   1937672.453   6149785.832
10 0 59385  77982.000000  0   -2793480.260   2640344.915   5705864.766
10 0 59385  78102.000000  0   -3129423.566   3303312.900   5161576.664
10 0 59385  78222.000000  0   -3399545.711   3913867.332   4526460.158
10 0 59385  78342.000000  0   -3600126.735   4460130.878   3811662.334
10 0 59385  78462.000000  0   -3728862.162   4931295.334   3029746.232
10 0 59385  78582.000000  0   -3784887.078   5317842.498   2194470.060
10 0 59385  78702.000000  0   -3768770.187   5611741.669   1320541.868
10 0 59385  78822.000000  0   -3682478.533   5806619.993    423356.300
10 0 59385  78942.000000  0   -3529314.593   5897903.146   -481283.597
10 0 59385  79062.000000  0   -3313824.710   5882919.289  -1377455.183
10 0 59385  79182.000000  0   -3041682.160   5760963.366  -2249407.019
10 0 59385  79302.000000  0   -2719545.856   5533319.956  -3081843.388
10 0 59385  79422.000000  0   -2354902.813   5203247.412  -3860195.696
10 0 59385  79542.000000  0   -1955897.685   4775922.838  -4570878.504
10 0 59385  79662.000000  0   -1531152.591   4258349.718  -5201522.084
10 0 59385  79782.000000  0   -1089583.595   3659234.038  -5741180.098
10 0 59385  79902.000000  0    -640215.892   2988829.763  -6180511.421
10 0 59385  80022.000000  0    -192001.721   2258756.084  -6511931.144
10 0 59385  80142.000000  0     246354.131   1481792.997  -6729729.191
10 0 59385  80262.000000  0     666558.404    671658.377  -6830159.399
10 0 59385  80382.000000  0    1060882.483   -157230.682  -6811497.155
10 0 59385  80502.000000  0    1422300.819   -990009.729  -6674065.061
10 0 59385  80622.000000  0    1744612.472  -1811626.589  -6420226.564
10 0 59385  80742.000000  0    2022545.655  -2607105.924  -6054350.201
10 0 59385  80862.000000  0    2251843.676  -3361816.657  -5582743.759
10 0 59385  80982.000000  0    2429331.226  -4061740.897  -5013557.162
10 0 59385  81102.000000  0    2552958.823  -4693735.814  -4356650.834
10 0 59385  81222.000000  0    2621824.640  -5245783.085  -3623435.643
10 0 59385  81342.000000  0    2636173.233  -5707225.078  -2826684.779
10 0 59385  81462.000000  0    2597371.193  -6068980.310  -1980317.151
10 0 59385  81582.000000  0    2507859.961  -6323733.237  -1099156.995
10 0 59385  81702.000000  0    2371085.350  -6466092.536   -198671.429
10 0 59385  81822.000000  0    2191404.781  -6492710.807    705307.226
10 0 59385  81942.000000  0    1973976.016  -6402365.515   1596866.500
10 0 59385  82062.000000  0    1724629.418  -6195997.453   2460304.234
10 0 59385  82182.000000  0    1449725.615  -5876703.353   3280414.011
10 0 59385  82302.000000  0    1156004.526  -5449685.937   4042759.567
10 0 59385  82422.000000  0     850428.482  -4922162.198   4733932.731
10 0 59385  82542.000000  0     540023.677  -4303233.968   5341791.262
10 0 59385  82662.000000  0     231723.085  -3603720.977   5855671.940
10 0 59385  82782.000000  0     -67783.684  -2835961.270   6266573.562
10 0 59385  82902.000000  0    -352191.867  -2013586.167   6567307.526
10 0 59385  83022.000000  0    -615710.989  -1151274.831   6752617.094
10 0 59385  83142.000000  0    -853180.427   -264490.483   6819264.991
10 0 59385  83262.000000  0   -1060169.219    630798.101   6766087.097
10 0 59385  83382.000000  0   -1233058.281   1518404.105   6594011.213
10 0 59385  83502.000000  0   -1369103.388   2382214.643   6306041.737
10 0 59385  83622.000000  0   -1466478.866   3206483.192   5907210.598
10 0 59385  83742.000000  0   -1524301.187   3976118.133   5404494.124
10 0 59385  83862.000000  0   -1542631.183   4676962.487   4806697.460
10 0 59385  83982.000000  0   -1522456.253   5296061.248   4124306.290
10 0 59385  84102.000000  0   -1465651.310   5821909.079   3369306.443
10 0 59385  84222.000000  0   -1374920.925   6244673.047   2554975.629
10 0 59385  84342.000000  0   -1253723.447   6556386.923   1695648.607
10 0 59385  84462.000000  0   -1106175.754   6751109.942    806459.938
10 0 59385  84582.000000  0    -936943.778   6825045.419    -96928.891
10 0 59385  84702.000000  0    -751121.050   6776618.835   -998613.313
10 0 59385  84822.000000  0    -554097.657   6606509.722  -1882736.934
10 0 59385  84942.000000  0    -351424.266   6317634.894  -2733779.127
10 0 59385  85062.000000  0    -148675.177   5915088.162  -3536831.658
10 0 59385  85182.000000  0      48687.199   5406039.430  -4277861.279
10 0 59385  85302.000000  0     235443.363   4799594.799  -4943953.584
10 0 59385  85422.000000  0     406739.951   4106621.706  -5523532.957
10 0 59385  85542.000000  0     558202.371   3339543.721  -6006555.871
10 0 59385  85662.000000  0     686033.914   2512109.476  -6384674.502
10 0 59385  85782.000000  0     787100.133   1639142.130  -6651369.061
10 0 59385  85902.000000  0     858997.257    736274.366  -6802049.328
10 0 59385  86022.000000  0     900103.154   -180328.149  -6834125.501
10 0 59385  86142.000000  0     909610.680  -1094250.921  -6747047.565
10 0 59385  86262.000000  0     887542.431  -1989117.154  -6542311.855
10 0 59385  86382.000000  0     834747.722  -2848872.261  -6223438.329
10 0 59386    102.000000  0     752881.387  -3658066.947  -5795919.268
10 0 59386    222.000000  0     644363.513  -4402133.883  -5267133.638
10 0 59386    342.000000  0     512322.722  -5067650.573  -4646230.423
10 0 59386    462.000000  0     360522.281  -5642586.889  -3943982.294
10 0 59386    582.000000  0     193270.405  -6116531.808  -3172608.322
10 0 59386    702.000000  0      15316.666  -6480892.929  -2345568.587
10 0 59386    822.000000  0    -168263.331  -6729065.746  -1477333.552
10 0 59386    942.000000  0    -352192.784  -6856566.385   -583129.902
10 0 59386   1062.000000  0    -531124.853  -6861122.916    321330.753
10 0 59386   1182.000000  0    -699776.955  -6742723.329   1220134.181
10 0 59386   1302.000000  0    -853064.948  -6503619.256   2097451.917
10 0 59386   1422.000000  0    -986233.531  -6148283.292   2937829.683
10 0 59386   1542.000000  0   -1094978.564  -5683320.922   3726468.777
10 0 59386   1662.000000  0   -1175558.627  -5117338.900   4449492.331
10 0 59386   1782.000000  0   -1224894.299  -4460776.470   5094191.233
10 0 59386   1902.000000  0   -1240651.318  -3725704.123   5649247.905
10 0 59386   2022.000000  0   -1221306.974  -2925591.443   6104933.610
10 0 59386   2142.000000  0   -1166196.818  -2075051.007   6453272.739
10 0 59386   2262.000000  0   -1075541.740  -1189567.392   6688175.212
10 0 59386   2382.000000  0    -950456.274   -285212.893   6805538.064
10 0 59386   2502.000000  0    -792937.566    621645.344   6803312.473
10 0 59386   2622.000000  0    -605833.553   1514641.067   6681537.698
10 0 59386   2742.000000  0    -392791.186   2377704.026   6442340.460
10 0 59386   2862.000000  0    -158185.996   3195349.006   6089899.902
10 0 59386   2982.000000  0      92965.430   3952954.827   5630379.146
10 0 59386   3102.000000  0     355108.864   4637029.270   5071822.884
10 0 59386   3222.000000  0     622270.985   5235455.280   4424023.115
10 0 59386   3342.000000  0     888189.742   5737713.829   3698350.861
10 0 59386   3462.000000  0    1146453.062   6135075.805   2907561.764
10 0 59386   3582.000000  0    1390647.854   6420769.115   2065573.181
10 0 59386   3702.000000  0    1614509.384   6590100.921   1187212.412
10 0 59386   3822.000000  0    1812070.447   6640540.566    287949.628
10 0 59386   3942.000000  0    1977806.017   6571757.910   -616382.697
10 0 59386   4062.000000  0    2106769.104   6385617.991  -1509876.535
10 0 59386   4182.000000  0    2194715.216   6086132.446  -2376835.632
10 0 59386   4302.000000  0    2238212.227   5679368.692  -3202057.820
10 0 59386   4422.000000  0    2234732.843   5173318.777  -3971106.305
10 0 59386   4542.000000  0    2182727.163   4577730.963  -4670563.073
10 0 59386   4662.000000  0    2081673.683   3903910.619  -5288259.006
10 0 59386   4782.000000  0    1932108.877   3164496.376  -5813477.914
10 0 59386   4902.000000  0    1735634.695   2373216.193  -6237133.111
10 0 59386   5022.000000  0    1494903.859   1544628.390  -6551912.851
10 0 59386   5142.000000  0    1213585.033    693854.439  -6752395.011
10 0 59386   5262.000000  0     896307.031   -163693.828  -6835131.657
10 0 59386   5382.000000  0     548582.730  -1012588.493  -6798701.386
10 0 59386   5502.000000  0     176714.943  -1837656.200  -6643729.412
10 0 59386   5622.000000  0    -212314.108  -2624241.015  -6372878.169
99
